NORAD_CAT_ID,OBJECT_NAME,OBJECT_TYPE,EPOCH,MEAN_MOTION,ECCENTRICITY,INCLINATION,RA_OF_ASC_NODE,ARG_OF_PERICENTER,MEAN_ANOMALY,BSTAR,MEAN_MOTION_DOT,MEAN_MOTION_DDOT,TLE_LINE0,TLE_LINE1,TLE_LINE2,SEMIMAJOR_AXIS,PERIOD,APOGEE,PERIGEE,DECAYED
49142.0,STARLINK-3042,PAYLOAD,2022-03-15 02:00:01,15.69763822,0.0003579,70.0004,335.3967,256.7771,262.3744,-0.0008638999999999,-0.00102163,0.0,0 STARLINK-3042,1 49142U 21082N   22074.08334491 -.00102163  00000-0 -86390-3 0  9994,2 49142  70.0004 335.3967 0003579 256.7771 262.3744 15.69763822  3660,6737.71,91.734,361.986,357.163,0.0
49142.0,STARLINK-3042,PAYLOAD,2022-03-15 22:00:00,15.69616834,0.0003893,69.9999,333.0547,254.3931,292.2707,0.00085423,0.00102464,0.0,0 STARLINK-3042,1 49142U 21082N   22074.91667824  .00102464  00000-0  85423-3 0  9993,2 49142  69.9999 333.0547 0003893 254.3931 292.2707 15.69616834 28781,6738.13,91.742,362.619,357.372,0.0
49142.0,STARLINK-3042,PAYLOAD,2022-03-16 14:00:01,15.69706263,0.000417,69.9996,331.181,252.1662,100.6068,0.0016885,0.00206042,0.0,0 STARLINK-3042,1 49142U 21082N   22075.58334491  .00206042  00000-0  16885-2 0  9990,2 49142  69.9996 331.1810 0004170 252.1662 100.6068 15.69706263  3686,6737.874,91.737,362.549,356.93,0.0
49142.0,STARLINK-3042,PAYLOAD,2022-03-16 20:00:01,15.69840777,0.0004241,70.0001,330.4783,253.4099,71.6901,-0.00022603,-0.00027216,0.0,0 STARLINK-3042,1 49142U 21082N   22075.83334491 -.00027216  00000-0 -22603-3 0  9990,2 49142  70.0001 330.4783 0004241 253.4099  71.6901 15.69840777 28920,6737.49,91.729,362.212,356.497,0.0
49142.0,STARLINK-3042,PAYLOAD,2022-03-17 14:00:01,15.69704744,0.0003773,69.9993,328.3699,248.9603,353.3677,0.00069183,0.0008305,0.0,0 STARLINK-3042,1 49142U 21082N   22076.58334491  .00083050  00000-0  69183-3 0  9993,2 49142  69.9993 328.3699 0003773 248.9603 353.3677 15.69704744 29045,6737.879,91.737,362.286,357.202,0.0
49142.0,STARLINK-3042,PAYLOAD,2022-03-17 22:00:00,15.69759985,0.0003676,69.9992,327.435,252.0358,73.4029,3.3679e-05,3.812e-05,0.0,0 STARLINK-3042,1 49142U 21082N   22076.91667824  .00003812  00000-0  33679-4 0  9999,2 49142  69.9992 327.4350 0003676 252.0358  73.4029 15.69759985  3694,6737.721,91.734,362.06300000000016,357.1090000000001,0.0
49142.0,STARLINK-3042,PAYLOAD,2022-03-18 08:00:01,15.69827061,0.0003683,69.9987,326.2616,252.936,266.4318,-0.00090622,-0.00107375,0.0,0 STARLINK-3042,1 49142U 21082N   22077.33334491 -.00107375  00000-0 -90622-3 0  9998,2 49142  69.9987 326.2616 0003683 252.9360 266.4318 15.69827061 29166,6737.529,91.73,361.875,356.912,0.0
49142.0,STARLINK-3042,PAYLOAD,2022-03-18 14:00:01,15.69726691,0.0003907,69.9989,325.5588,248.7513,243.0186,0.00047807,0.000572,0.0,0 STARLINK-3042,1 49142U 21082N   22077.58334491  .00057200  00000-0  47807-3 0  9991,2 49142  69.9989 325.5588 0003907 248.7513 243.0186 15.69726691  3714,6737.816,91.736,362.31300000000016,357.0490000000001,0.0
49142.0,STARLINK-3042,PAYLOAD,2022-03-18 22:00:00,15.69782761,0.0003735,70.0,324.6227,252.0623,322.8338,-0.00081097,-0.00096065,0.0,0 STARLINK-3042,1 49142U 21082N   22077.91667824 -.00096065  00000-0 -81097-3 0  9990,2 49142  70.0000 324.6227 0003735 252.0623 322.8338 15.69782761 29252,6737.656,91.732,362.037,357.004,0.0
49142.0,STARLINK-3042,PAYLOAD,2022-03-19 02:00:01,15.69704166,0.0003638,70.0005,324.1531,253.3579,183.1882,0.00027899,0.00033164,0.0,0 STARLINK-3042,1 49142U 21082N   22078.08335648  .00033164  00000-0  27899-3 0  9994,2 49142  70.0005 324.1531 0003638 253.3579 183.1882 15.69704166 29284,6737.88,91.737,362.197,357.2940000000001,0.0
49142.0,STARLINK-3042,PAYLOAD,2022-03-19 14:00:01,15.69705946,0.0003672,70.0008,322.7479,246.5849,134.5523,0.0008099,0.00097431,0.0,0 STARLINK-3042,1 49142U 21082N   22078.58334491  .00097431  00000-0  80990-3 0  9992,2 49142  70.0008 322.7479 0003672 246.5849 134.5523 15.69705946  3689,6737.875,91.737,362.214,357.266,0.0
49142.0,STARLINK-3042,PAYLOAD,2022-03-19 22:00:01,15.69762479,0.0003654,70.0005,321.8111,250.5639,213.7582,7.241e-05,8.445e-05,0.0,0 STARLINK-3042,1 49142U 21082N   22078.91668981  .00008445  00000-0  72410-4 0  9999,2 49142  70.0005 321.8111 0003654 250.5639 213.7582 15.69762479  3703,6737.714,91.734,362.041,357.117,0.0
49142.0,STARLINK-3042,PAYLOAD,2022-03-20 06:00:00,15.69830244,0.0003674,69.9999,320.8739,252.4114,294.9859,-0.0010890999999999,-0.00128693,0.0,0 STARLINK-3042,1 49142U 21082N   22079.25001157 -.00128693  00000-0 -10891-2 0  9996,2 49142  69.9999 320.8739 0003674 252.4114 294.9859 15.69830244 29463,6737.52,91.73,361.86,356.909,0.0
49142.0,STARLINK-3042,PAYLOAD,2022-03-20 14:00:01,15.69711211,0.0003979,69.9999,319.9367,247.6601,22.9156,0.00076444,0.00091915,0.0,0 STARLINK-3042,1 49142U 21082N   22079.58334491  .00091915  00000-0  76444-3 0  9993,2 49142  69.9999 319.9367 0003979 247.6601  22.9156 15.69711211 29511,6737.86,91.737,362.406,357.0440000000001,0.0
49142.0,STARLINK-3042,PAYLOAD,2022-03-20 22:00:01,15.6978889,0.0003828,70.0003,318.9995,251.06,102.7128,-0.00018618,-0.00022417,0.0,0 STARLINK-3042,1 49142U 21082N   22079.91668981 -.00022417  00000-0 -18618-3 0  9996,2 49142  70.0003 318.9995 0003828 251.0600 102.7128 15.69788890  3703,6737.638000000001,91.732,362.082,356.9240000000001,0.0
49142.0,STARLINK-3042,PAYLOAD,2022-03-21 06:00:00,15.69771902,0.0003613,69.9999,318.0624,251.2203,185.65,-0.00038184,-0.00045593,0.0,0 STARLINK-3042,1 49142U 21082N   22080.25001157 -.00045593  00000-0 -38184-3 0  9991,2 49142  69.9999 318.0624 0003613 251.2203 185.6500 15.69771902 29626,6737.687,91.733,361.986,357.117,0.0
49142.0,STARLINK-3042,PAYLOAD,2022-03-21 14:00:01,15.69743722,0.00038,70.0,317.1257,245.7174,274.2878,-9.3321e-05,-0.00011336,0.0,0 STARLINK-3042,1 49142U 21082N   22080.58334491 -.00011336  00000-0 -93321-4 0  9990,2 49142  70.0000 317.1257 0003800 245.7174 274.2878 15.69743722  3687,6737.767,91.735,362.193,357.07199999999995,0.0
49142.0,STARLINK-3042,PAYLOAD,2022-03-21 22:00:00,15.69704597,0.0003804,69.9999,316.1888,251.0838,352.0326,0.00021656,0.00025673,0.0,0 STARLINK-3042,1 49142U 21082N   22080.91667824  .00025673  00000-0  21656-3 0  9994,2 49142  69.9999 316.1888 0003804 251.0838 352.0326 15.69704597  3681,6737.879,91.737,362.307,357.181,0.0
49142.0,STARLINK-3042,PAYLOAD,2022-03-22 06:00:00,15.69757026,0.0003766,69.9994,315.2515,251.4822,74.7181,-0.00018768,-0.00022566,0.0,0 STARLINK-3042,1 49142U 21082N   22081.25001157 -.00022566  00000-0 -18768-3 0  9993,2 49142  69.9994 315.2515 0003766 251.4822  74.7181 15.69757026 29777,6737.729,91.734,362.132,357.057,0.0
49142.0,STARLINK-3042,PAYLOAD,2022-03-22 14:00:01,15.69737223,0.0003806,69.9995,314.3144,245.3505,163.9687,-0.00013743,-0.00016579,0.0,0 STARLINK-3042,1 49142U 21082N   22081.58334491 -.00016579  00000-0 -13743-3 0  9994,2 49142  69.9995 314.3144 0003806 245.3505 163.9687 15.69737223  3693,6737.786,91.735,362.215,357.086,0.0
49142.0,STARLINK-3042,PAYLOAD,2022-03-22 22:00:01,15.697068300000002,0.00036,69.9999,313.3772,249.1845,243.3164,0.00027104,0.00032212,0.0,0 STARLINK-3042,1 49142U 21082N   22081.91668981  .00032212  00000-0  27104-3 0  9991,2 49142  69.9999 313.3772 0003600 249.1845 243.3164 15.69706830  3697,6737.873000000001,91.737,362.163,357.31199999999984,0.0
49142.0,STARLINK-3042,PAYLOAD,2022-03-23 08:00:01,15.69759212,0.0003563999999999,69.9998,312.2059,247.4487,78.867,-9.5596e-05,-0.00011614,0.0,0 STARLINK-3042,1 49142U 21082N   22082.33334491 -.00011614  00000-0 -95596-4 0  9990,2 49142  69.9998 312.2059 0003564 247.4487  78.8670 15.69759212 29945,6737.723000000001,91.734,361.989,357.18699999999984,0.0
49142.0,STARLINK-3042,PAYLOAD,2022-03-23 14:00:01,15.69770235,0.0003774,70.0,311.5034,244.7941,53.8688,-0.00026487,-0.00031742,0.0,0 STARLINK-3042,1 49142U 21082N   22082.58334491 -.00031742  00000-0 -26487-3 0  9993,2 49142  70.0000 311.5034 0003774 244.7941  53.8688 15.69770235  3712,6737.691,91.733,362.099,357.014,0.0
49142.0,STARLINK-3042,PAYLOAD,2022-03-23 22:00:00,15.6972447,0.0003789,70.0,310.5665,250.2357,131.5757,0.00024718,0.0002937,0.0,0 STARLINK-3042,1 49142U 21082N   22082.91667824  .00029370  00000-0  24718-3 0  9996,2 49142  70.0000 310.5665 0003789 250.2357 131.5757 15.69724470  3700,6737.821999999999,91.736,362.24,357.134,0.0
49142.0,STARLINK-3042,PAYLOAD,2022-03-24 14:00:01,15.69782524,0.0003831,69.9997,308.6923,244.2019,303.8541,-0.00023892,-0.00028679,0.0,0 STARLINK-3042,1 49142U 21082N   22083.58334491 -.00028679  00000-0 -23892-3 0  9996,2 49142  69.9997 308.6923 0003831 244.2019 303.8541 15.69782524  3678,6737.656,91.732,362.102,356.94,0.0
49142.0,STARLINK-3042,PAYLOAD,2022-03-24 22:00:00,15.69726166,0.0003572,69.9999,307.7551,249.0757,22.1379,0.00045361,0.00054239,0.0,0 STARLINK-3042,1 49142U 21082N   22083.91667824  .00054239  00000-0  45361-3 0  9996,2 49142  69.9999 307.7551 0003572 249.0757  22.1379 15.69726166  3705,6737.816999999999,91.736,362.089,357.276,0.0
49142.0,STARLINK-3042,PAYLOAD,2022-03-25 00:00:02,15.69726925,0.0003538,70.0,307.5207,249.987,132.0712,0.00061074,0.00073269,0.0,0 STARLINK-3042,1 49142U 21082N   22084.00002315  .00073269  00000-0  61074-3 0  9998,2 49142  70.0000 307.5207 0003538 249.9870 132.0712 15.69726925 30215,6737.815,91.736,362.064,357.296,0.0
49142.0,STARLINK-3042,PAYLOAD,2022-03-25 14:00:01,15.69718629,0.0003862,70.0002,305.8815,245.1361,192.3513,0.00054021,0.00064699,0.0,0 STARLINK-3042,1 49142U 21082N   22084.58334491  .00064699  00000-0  54021-3 0  9995,2 49142  70.0002 305.8815 0003862 245.1361 192.3513 15.69718629 30306,6737.839,91.736,362.306,357.102,0.0
49142.0,STARLINK-3042,PAYLOAD,2022-03-25 22:00:01,15.6975791,0.0003957,70.0,304.9444,251.3568,269.3252,-0.00047064,-0.0005605,0.0,0 STARLINK-3042,1 49142U 21082N   22084.91668981 -.00056050  00000-0 -47064-3 0  9999,2 49142  70.0000 304.9444 0003957 251.3568 269.3252 15.69757910 30351,6737.727,91.734,362.258,356.926,0.0
